STARLINK-36223          
1 67126U 25299AA  26014.25002315  .00056455  00000+0  13501-2 0  9996
2 67126  42.9995 122.1494 0001548 250.6773 136.4677 15.40670368  6036
STARLINK-36164          
1 67127U 25299AB  26014.25002315  .00065967  00000+0  15727-2 0  9997
2 67127  42.9995 122.0585 0000909 263.5682 160.8029 15.40702750  6032
STARLINK-35685          
1 67128U 25299AC  26013.36219507  .00022249  00000+0  53828-3 0  9993
2 67128  43.0012 127.5971 0004428 297.2663  62.7742 15.40696215  4585
STARLINK-36214          
1 67129U 25299AD  26014.25002315  .00050366  00000+0  12059-2 0  9991
2 67129  42.9997 121.9973 0001707 278.9482 170.3881 15.40676911  6031
STARLINK-36194          
1 67130U 25299AE  26014.25002315  .00059741  00000+0  14277-2 0  9993
2 67130  42.9995 122.1797 0001385 265.3350 109.3375 15.40669762  6030
ZIYUAN 3-04 (ZY 3-04)   
1 67131U 25300A   26009.18248613  .00001730  00000+0  80130-4 0  9994
2 67131  97.4889  88.1516 0003945 118.6144 241.5489 15.21458354  3666
CZ-4B R/B               
1 67132U 25300B   26014.16540490  .00099594  52477-5  39034-3 0  9999
2 67132  97.5506  95.4775 0151667 269.3092  89.0790 15.71373995  4554
KUIPER-00144            
1 67133U 25301A   26013.59338669  .00015339  00000+0  43804-3 0  9994
2 67133  51.8715 331.4843 0006301 175.8289 184.2751 15.36190122  5266
KUIPER-00164            
1 67134U 25301B   26014.16679577  .00025177  00000+0  69955-3 0  9991
2 67134  51.8725 328.5818 0003199 153.0867 207.0286 15.36713828  5530
KUIPER-00175            
1 67135U 25301C   26014.15714740  .00016253  00000+0  44830-3 0  9993
2 67135  51.8742 328.5179 0002527 110.4139 249.7119 15.37239041  5420
KUIPER-00179            
1 67136U 25301D   26014.09913733  .00020526  00000+0  56985-3 0  9992
2 67136  51.8740 328.8788 0003435 136.9977 223.1279 15.36865784  5522
KUIPER-00181            
1 67137U 25301E   26014.13465599  .00016734  00000+0  49633-3 0  9998
2 67137  51.8645 329.0941 0010594 204.9810 155.0664 15.34893848  5506
