CCSDS_OMM_VERS = 2.0
CREATION_DATE  = 
ORIGINATOR     = 

OBJECT_NAME    = STARLINK-36223
OBJECT_ID      = 2025-299AA
CENTER_NAME    = EARTH
REF_FRAME      = TEME
TIME_SYSTEM    = UTC
MEAN_ELEMENT_THEORY = SGP/SGP4

EPOCH          = 2026-01-14T06:00:02.000160
MEAN_MOTION    = 15.40670368
ECCENTRICITY   = .00015486
INCLINATION    = 42.9995
RA_OF_ASC_NODE = 122.1494
ARG_OF_PERICENTER = 250.6773
MEAN_ANOMALY   = 136.4677

EPHEMERIS_TYPE = 0
CLASSIFICATION_TYPE = U
NORAD_CAT_ID   = 67126
ELEMENT_SET_NO = 999
REV_AT_EPOCH   = 603
BSTAR          = .13500785E-2
MEAN_MOTION_DOT = .56455E-3
MEAN_MOTION_DDOT = 0

CCSDS_OMM_VERS = 2.0
CREATION_DATE  = 
ORIGINATOR     = 

OBJECT_NAME    = STARLINK-36164
OBJECT_ID      = 2025-299AB
CENTER_NAME    = EARTH
REF_FRAME      = TEME
TIME_SYSTEM    = UTC
MEAN_ELEMENT_THEORY = SGP/SGP4

EPOCH          = 2026-01-14T06:00:02.000160
MEAN_MOTION    = 15.40702750
ECCENTRICITY   = .00009099
INCLINATION    = 42.9995
RA_OF_ASC_NODE = 122.0585
ARG_OF_PERICENTER = 263.5682
MEAN_ANOMALY   = 160.8029

EPHEMERIS_TYPE = 0
CLASSIFICATION_TYPE = U
NORAD_CAT_ID   = 67127
ELEMENT_SET_NO = 999
REV_AT_EPOCH   = 603
BSTAR          = .15726822E-2
MEAN_MOTION_DOT = .65967E-3
MEAN_MOTION_DDOT = 0

CCSDS_OMM_VERS = 2.0
CREATION_DATE  = 
ORIGINATOR     = 

OBJECT_NAME    = STARLINK-35685
OBJECT_ID      = 2025-299AC
CENTER_NAME    = EARTH
REF_FRAME      = TEME
TIME_SYSTEM    = UTC
MEAN_ELEMENT_THEORY = SGP/SGP4

EPOCH          = 2026-01-13T08:41:33.654048
MEAN_MOTION    = 15.40696215
ECCENTRICITY   = .00044283
INCLINATION    = 43.0012
RA_OF_ASC_NODE = 127.5971
ARG_OF_PERICENTER = 297.2663
MEAN_ANOMALY   = 62.7742

EPHEMERIS_TYPE = 0
CLASSIFICATION_TYPE = U
NORAD_CAT_ID   = 67128
ELEMENT_SET_NO = 999
REV_AT_EPOCH   = 458
BSTAR          = .53827606E-3
MEAN_MOTION_DOT = .22249E-3
MEAN_MOTION_DDOT = 0

CCSDS_OMM_VERS = 2.0
CREATION_DATE  = 
ORIGINATOR     = 

OBJECT_NAME    = STARLINK-36214
OBJECT_ID      = 2025-299AD
CENTER_NAME    = EARTH
REF_FRAME      = TEME
TIME_SYSTEM    = UTC
MEAN_ELEMENT_THEORY = SGP/SGP4

EPOCH          = 2026-01-14T06:00:02.000160
MEAN_MOTION    = 15.40676911
ECCENTRICITY   = .00017078
INCLINATION    = 42.9997
RA_OF_ASC_NODE = 121.9973
ARG_OF_PERICENTER = 278.9482
MEAN_ANOMALY   = 170.3881

EPHEMERIS_TYPE = 0
CLASSIFICATION_TYPE = U
NORAD_CAT_ID   = 67129
ELEMENT_SET_NO = 999
REV_AT_EPOCH   = 603
BSTAR          = .12059243E-2
MEAN_MOTION_DOT = .50366E-3
MEAN_MOTION_DDOT = 0

CCSDS_OMM_VERS = 2.0
CREATION_DATE  = 
ORIGINATOR     = 

OBJECT_NAME    = STARLINK-36194
OBJECT_ID      = 2025-299AE
CENTER_NAME    = EARTH
REF_FRAME      = TEME
TIME_SYSTEM    = UTC
MEAN_ELEMENT_THEORY = SGP/SGP4

EPOCH          = 2026-01-14T06:00:02.000160
MEAN_MOTION    = 15.40669762
ECCENTRICITY   = .00013855
INCLINATION    = 42.9995
RA_OF_ASC_NODE = 122.1797
ARG_OF_PERICENTER = 265.3350
MEAN_ANOMALY   = 109.3375

EPHEMERIS_TYPE = 0
CLASSIFICATION_TYPE = U
NORAD_CAT_ID   = 67130
ELEMENT_SET_NO = 999
REV_AT_EPOCH   = 603
BSTAR          = .14276583E-2
MEAN_MOTION_DOT = .59741E-3
MEAN_MOTION_DDOT = 0

CCSDS_OMM_VERS = 2.0
CREATION_DATE  = 
ORIGINATOR     = 

OBJECT_NAME    = ZIYUAN 3-04 (ZY 3-04)
OBJECT_ID      = 2025-300A
CENTER_NAME    = EARTH
REF_FRAME      = TEME
TIME_SYSTEM    = UTC
MEAN_ELEMENT_THEORY = SGP/SGP4

EPOCH          = 2026-01-09T04:22:46.801632
MEAN_MOTION    = 15.21458354
ECCENTRICITY   = .00039457
INCLINATION    = 97.4889
RA_OF_ASC_NODE = 88.1516
ARG_OF_PERICENTER = 118.6144
MEAN_ANOMALY   = 241.5489

EPHEMERIS_TYPE = 0
CLASSIFICATION_TYPE = U
NORAD_CAT_ID   = 67131
ELEMENT_SET_NO = 999
REV_AT_EPOCH   = 366
BSTAR          = .80129707E-4
MEAN_MOTION_DOT = .173E-4
MEAN_MOTION_DDOT = 0

CCSDS_OMM_VERS = 2.0
CREATION_DATE  = 
ORIGINATOR     = 

OBJECT_NAME    = CZ-4B R/B
OBJECT_ID      = 2025-300B
CENTER_NAME    = EARTH
REF_FRAME      = TEME
TIME_SYSTEM    = UTC
MEAN_ELEMENT_THEORY = SGP/SGP4

EPOCH          = 2026-01-14T03:58:10.983360
MEAN_MOTION    = 15.71373995
ECCENTRICITY   = .0151667
INCLINATION    = 97.5506
RA_OF_ASC_NODE = 95.4775
ARG_OF_PERICENTER = 269.3092
MEAN_ANOMALY   = 89.0790

EPHEMERIS_TYPE = 0
CLASSIFICATION_TYPE = U
NORAD_CAT_ID   = 67132
ELEMENT_SET_NO = 999
REV_AT_EPOCH   = 455
BSTAR          = .39033673E-3
MEAN_MOTION_DOT = .99594E-3
MEAN_MOTION_DDOT = .5247716E-5

CCSDS_OMM_VERS = 2.0
CREATION_DATE  = 
ORIGINATOR     = 

OBJECT_NAME    = KUIPER-00144
OBJECT_ID      = 2025-301A
CENTER_NAME    = EARTH
REF_FRAME      = TEME
TIME_SYSTEM    = UTC
MEAN_ELEMENT_THEORY = SGP/SGP4

EPOCH          = 2026-01-13T14:14:28.610016
MEAN_MOTION    = 15.36190122
ECCENTRICITY   = .00063016
INCLINATION    = 51.8715
RA_OF_ASC_NODE = 331.4843
ARG_OF_PERICENTER = 175.8289
MEAN_ANOMALY   = 184.2751

EPHEMERIS_TYPE = 0
CLASSIFICATION_TYPE = U
NORAD_CAT_ID   = 67133
ELEMENT_SET_NO = 999
REV_AT_EPOCH   = 526
BSTAR          = .43803622E-3
MEAN_MOTION_DOT = .15339E-3
MEAN_MOTION_DDOT = 0

CCSDS_OMM_VERS = 2.0
CREATION_DATE  = 
ORIGINATOR     = 

OBJECT_NAME    = KUIPER-00164
OBJECT_ID      = 2025-301B
CENTER_NAME    = EARTH
REF_FRAME      = TEME
TIME_SYSTEM    = UTC
MEAN_ELEMENT_THEORY = SGP/SGP4

EPOCH          = 2026-01-14T04:00:11.154528
MEAN_MOTION    = 15.36713828
ECCENTRICITY   = .00031997
INCLINATION    = 51.8725
RA_OF_ASC_NODE = 328.5818
ARG_OF_PERICENTER = 153.0867
MEAN_ANOMALY   = 207.0286

EPHEMERIS_TYPE = 0
CLASSIFICATION_TYPE = U
NORAD_CAT_ID   = 67134
ELEMENT_SET_NO = 999
REV_AT_EPOCH   = 553
BSTAR          = .69954899E-3
MEAN_MOTION_DOT = .25177E-3
MEAN_MOTION_DDOT = 0

CCSDS_OMM_VERS = 2.0
CREATION_DATE  = 
ORIGINATOR     = 

OBJECT_NAME    = KUIPER-00175
OBJECT_ID      = 2025-301C
CENTER_NAME    = EARTH
REF_FRAME      = TEME
TIME_SYSTEM    = UTC
MEAN_ELEMENT_THEORY = SGP/SGP4

EPOCH          = 2026-01-14T03:46:17.535360
MEAN_MOTION    = 15.37239041
ECCENTRICITY   = .00025277
INCLINATION    = 51.8742
RA_OF_ASC_NODE = 328.5179
ARG_OF_PERICENTER = 110.4139
MEAN_ANOMALY   = 249.7119

EPHEMERIS_TYPE = 0
CLASSIFICATION_TYPE = U
NORAD_CAT_ID   = 67135
ELEMENT_SET_NO = 999
REV_AT_EPOCH   = 542
BSTAR          = .44830429E-3
MEAN_MOTION_DOT = .16253E-3
MEAN_MOTION_DDOT = 0

CCSDS_OMM_VERS = 2.0
CREATION_DATE  = 
ORIGINATOR     = 

OBJECT_NAME    = KUIPER-00179
OBJECT_ID      = 2025-301D
CENTER_NAME    = EARTH
REF_FRAME      = TEME
TIME_SYSTEM    = UTC
MEAN_ELEMENT_THEORY = SGP/SGP4

EPOCH          = 2026-01-14T02:22:45.465312
MEAN_MOTION    = 15.36865784
ECCENTRICITY   = .00034355
INCLINATION    = 51.8740
RA_OF_ASC_NODE = 328.8788
ARG_OF_PERICENTER = 136.9977
MEAN_ANOMALY   = 223.1279

EPHEMERIS_TYPE = 0
CLASSIFICATION_TYPE = U
NORAD_CAT_ID   = 67136
ELEMENT_SET_NO = 999
REV_AT_EPOCH   = 552
BSTAR          = .56984914E-3
MEAN_MOTION_DOT = .20526E-3
MEAN_MOTION_DDOT = 0

CCSDS_OMM_VERS = 2.0
CREATION_DATE  = 
ORIGINATOR     = 

OBJECT_NAME    = KUIPER-00181
OBJECT_ID      = 2025-301E
CENTER_NAME    = EARTH
REF_FRAME      = TEME
TIME_SYSTEM    = UTC
MEAN_ELEMENT_THEORY = SGP/SGP4

EPOCH          = 2026-01-14T03:13:54.277536
MEAN_MOTION    = 15.34893848
ECCENTRICITY   = .0010594
INCLINATION    = 51.8645
RA_OF_ASC_NODE = 329.0941
ARG_OF_PERICENTER = 204.9810
MEAN_ANOMALY   = 155.0664

EPHEMERIS_TYPE = 0
CLASSIFICATION_TYPE = U
NORAD_CAT_ID   = 67137
ELEMENT_SET_NO = 999
REV_AT_EPOCH   = 550
BSTAR          = .49633109E-3
MEAN_MOTION_DOT = .16734E-3
MEAN_MOTION_DDOT = 0

